[{"CCSDS_OMM_VERS":"2.0","COMMENT":"GENERATED VIA SPACE-TRACK.ORG API","CREATION_DATE":"2023-05-24T02:40:58","ORIGINATOR":"18 SPCS","OBJECT_NAME":"KSF3-C","OBJECT_ID":"2023-001K","CENTER_NAME":"EARTH","REF_FRAME":"TEME","TIME_SYSTEM":"UTC","MEAN_ELEMENT_THEORY":"SGP4","EPOCH":"2023-05-23T21:25:48.026208","MEAN_MOTION":"15.16342958","ECCENTRICITY":"0.00121530","INCLINATION":"97.4781","RA_OF_ASC_NODE":"203.7774","ARG_OF_PERICENTER":"100.9847","MEAN_ANOMALY":"259.2754","EPHEMERIS_TYPE":"0","CLASSIFICATION_TYPE":"U","NORAD_CAT_ID":"55018","ELEMENT_SET_NO":"999","REV_AT_EPOCH":"2138","BSTAR":"0.00057535000000","MEAN_MOTION_DOT":"0.00011120","MEAN_MOTION_DDOT":"0.0000000000000","SEMIMAJOR_AXIS":"6895.041","PERIOD":"94.965","APOAPSIS":"525.286","PERIAPSIS":"508.527","OBJECT_TYPE":"PAYLOAD","RCS_SIZE":"MEDIUM","COUNTRY_CODE":"LUXE","LAUNCH_DATE":"2023-01-03","SITE":"AFETR","DECAY_DATE":null,"FILE":"3915766","GP_ID":"232406634","TLE_LINE0":"0 KSF3-C","TLE_LINE1":"1 55018U 23001K   23143.89291697  .00011120  00000-0  57535-3 0  9992","TLE_LINE2":"2 55018  97.4781 203.7774 0012153 100.9847 259.2754 15.16342958 21380"},{"CCSDS_OMM_VERS":"2.0","COMMENT":"GENERATED VIA SPACE-TRACK.ORG API","CREATION_DATE":"2023-05-24T06:26:12","ORIGINATOR":"18 SPCS","OBJECT_NAME":"KSF3-C","OBJECT_ID":"2023-001K","CENTER_NAME":"EARTH","REF_FRAME":"TEME","TIME_SYSTEM":"UTC","MEAN_ELEMENT_THEORY":"SGP4","EPOCH":"2023-05-24T02:10:52.628160","MEAN_MOTION":"15.16348448","ECCENTRICITY":"0.00121480","INCLINATION":"97.4780","RA_OF_ASC_NODE":"203.9725","ARG_OF_PERICENTER":"100.3597","MEAN_ANOMALY":"259.9006","EPHEMERIS_TYPE":"0","CLASSIFICATION_TYPE":"U","NORAD_CAT_ID":"55018","ELEMENT_SET_NO":"999","REV_AT_EPOCH":"2141","BSTAR":"0.00059917000000","MEAN_MOTION_DOT":"0.00011586","MEAN_MOTION_DDOT":"0.0000000000000","SEMIMAJOR_AXIS":"6895.025","PERIOD":"94.965","APOAPSIS":"525.266","PERIAPSIS":"508.514","OBJECT_TYPE":"PAYLOAD","RCS_SIZE":"MEDIUM","COUNTRY_CODE":"LUXE","LAUNCH_DATE":"2023-01-03","SITE":"AFETR","DECAY_DATE":null,"FILE":"3915813","GP_ID":"232409423","TLE_LINE0":"0 KSF3-C","TLE_LINE1":"1 55018U 23001K   23144.09088690  .00011586  00000-0  59917-3 0  9994","TLE_LINE2":"2 55018  97.4780 203.9725 0012148 100.3597 259.9006 15.16348448 21418"},{"CCSDS_OMM_VERS":"2.0","COMMENT":"GENERATED VIA SPACE-TRACK.ORG API","CREATION_DATE":"2023-05-24T14:26:20","ORIGINATOR":"18 SPCS","OBJECT_NAME":"KSF3-C","OBJECT_ID":"2023-001K","CENTER_NAME":"EARTH","REF_FRAME":"TEME","TIME_SYSTEM":"UTC","MEAN_ELEMENT_THEORY":"SGP4","EPOCH":"2023-05-24T10:06:00.167328","MEAN_MOTION":"15.16356099","ECCENTRICITY":"0.00121390","INCLINATION":"97.4779","RA_OF_ASC_NODE":"204.2978","ARG_OF_PERICENTER":"99.3810","MEAN_ANOMALY":"260.8796","EPHEMERIS_TYPE":"0","CLASSIFICATION_TYPE":"U","NORAD_CAT_ID":"55018","ELEMENT_SET_NO":"999","REV_AT_EPOCH":"2146","BSTAR":"0.00061151000000","MEAN_MOTION_DOT":"0.00011829","MEAN_MOTION_DDOT":"0.0000000000000","SEMIMAJOR_AXIS":"6895.002","PERIOD":"94.965","APOAPSIS":"525.236","PERIAPSIS":"508.497","OBJECT_TYPE":"PAYLOAD","RCS_SIZE":"MEDIUM","COUNTRY_CODE":"LUXE","LAUNCH_DATE":"2023-01-03","SITE":"AFETR","DECAY_DATE":null,"FILE":"3916141","GP_ID":"232417674","TLE_LINE0":"0 KSF3-C","TLE_LINE1":"1 55018U 23001K   23144.42083527  .00011829  00000-0  61151-3 0  9998","TLE_LINE2":"2 55018  97.4779 204.2978 0012139  99.3810 260.8796 15.16356099 21468"},{"CCSDS_OMM_VERS":"2.0","COMMENT":"GENERATED VIA SPACE-TRACK.ORG API","CREATION_DATE":"2023-05-25T04:28:09","ORIGINATOR":"18 SPCS","OBJECT_NAME":"KSF3-C","OBJECT_ID":"2023-001K","CENTER_NAME":"EARTH","REF_FRAME":"TEME","TIME_SYSTEM":"UTC","MEAN_ELEMENT_THEORY":"SGP4","EPOCH":"2023-05-24T14:51:04.650048","MEAN_MOTION":"15.16359371","ECCENTRICITY":"0.00121330","INCLINATION":"97.4778","RA_OF_ASC_NODE":"204.4930","ARG_OF_PERICENTER":"98.8271","MEAN_ANOMALY":"261.4337","EPHEMERIS_TYPE":"0","CLASSIFICATION_TYPE":"U","NORAD_CAT_ID":"55018","ELEMENT_SET_NO":"999","REV_AT_EPOCH":"2149","BSTAR":"0.00055533000000","MEAN_MOTION_DOT":"0.00010735","MEAN_MOTION_DDOT":"0.0000000000000","SEMIMAJOR_AXIS":"6894.992","PERIOD":"94.964","APOAPSIS":"525.222","PERIAPSIS":"508.491","OBJECT_TYPE":"PAYLOAD","RCS_SIZE":"MEDIUM","COUNTRY_CODE":"LUXE","LAUNCH_DATE":"2023-01-03","SITE":"AFETR","DECAY_DATE":null,"FILE":"3916549","GP_ID":"232453173","TLE_LINE0":"0 KSF3-C","TLE_LINE1":"1 55018U 23001K   23144.61880382  .00010735  00000-0  55533-3 0  9995","TLE_LINE2":"2 55018  97.4778 204.4930 0012133  98.8271 261.4337 15.16359371 21493"},{"CCSDS_OMM_VERS":"2.0","COMMENT":"GENERATED VIA SPACE-TRACK.ORG API","CREATION_DATE":"2023-05-24T22:26:11","ORIGINATOR":"18 SPCS","OBJECT_NAME":"KSF3-C","OBJECT_ID":"2023-001K","CENTER_NAME":"EARTH","REF_FRAME":"TEME","TIME_SYSTEM":"UTC","MEAN_ELEMENT_THEORY":"SGP4","EPOCH":"2023-05-24T14:51:04.650048","MEAN_MOTION":"15.16359371","ECCENTRICITY":"0.00121330","INCLINATION":"97.4778","RA_OF_ASC_NODE":"204.4930","ARG_OF_PERICENTER":"98.8271","MEAN_ANOMALY":"261.4337","EPHEMERIS_TYPE":"0","CLASSIFICATION_TYPE":"U","NORAD_CAT_ID":"55018","ELEMENT_SET_NO":"999","REV_AT_EPOCH":"2149","BSTAR":"0.00055533000000","MEAN_MOTION_DOT":"0.00010735","MEAN_MOTION_DDOT":"0.0000000000000","SEMIMAJOR_AXIS":"6894.992","PERIOD":"94.964","APOAPSIS":"525.222","PERIAPSIS":"508.491","OBJECT_TYPE":"PAYLOAD","RCS_SIZE":"MEDIUM","COUNTRY_CODE":"LUXE","LAUNCH_DATE":"2023-01-03","SITE":"AFETR","DECAY_DATE":null,"FILE":"3916401","GP_ID":"232423480","TLE_LINE0":"0 KSF3-C","TLE_LINE1":"1 55018U 23001K   23144.61880382  .00010735  00000-0  55533-3 0  9995","TLE_LINE2":"2 55018  97.4778 204.4930 0012133  98.8271 261.4337 15.16359371 21493"},{"CCSDS_OMM_VERS":"2.0","COMMENT":"GENERATED VIA SPACE-TRACK.ORG API","CREATION_DATE":"2023-05-25T20:57:05","ORIGINATOR":"18 SPCS","OBJECT_NAME":"KSF3-C","OBJECT_ID":"2023-001K","CENTER_NAME":"EARTH","REF_FRAME":"TEME","TIME_SYSTEM":"UTC","MEAN_ELEMENT_THEORY":"SGP4","EPOCH":"2023-05-25T14:36:26.336160","MEAN_MOTION":"15.16379749","ECCENTRICITY":"0.00120570","INCLINATION":"97.4777","RA_OF_ASC_NODE":"205.4689","ARG_OF_PERICENTER":"95.9500","MEAN_ANOMALY":"264.3107","EPHEMERIS_TYPE":"0","CLASSIFICATION_TYPE":"U","NORAD_CAT_ID":"55018","ELEMENT_SET_NO":"999","REV_AT_EPOCH":"2164","BSTAR":"0.00055127000000","MEAN_MOTION_DOT":"0.00010662","MEAN_MOTION_DDOT":"0.0000000000000","SEMIMAJOR_AXIS":"6894.930","PERIOD":"94.963","APOAPSIS":"525.108","PERIAPSIS":"508.482","OBJECT_TYPE":"PAYLOAD","RCS_SIZE":"MEDIUM","COUNTRY_CODE":"LUXE","LAUNCH_DATE":"2023-01-03","SITE":"AFETR","DECAY_DATE":null,"FILE":"3916775","GP_ID":"232483748","TLE_LINE0":"0 KSF3-C","TLE_LINE1":"1 55018U 23001K   23145.60863815  .00010662  00000-0  55127-3 0  9995","TLE_LINE2":"2 55018  97.4777 205.4689 0012057  95.9500 264.3107 15.16379749 21647"},{"CCSDS_OMM_VERS":"2.0","COMMENT":"GENERATED VIA SPACE-TRACK.ORG API","CREATION_DATE":"2023-05-25T22:26:13","ORIGINATOR":"18 SPCS","OBJECT_NAME":"KSF3-C","OBJECT_ID":"2023-001K","CENTER_NAME":"EARTH","REF_FRAME":"TEME","TIME_SYSTEM":"UTC","MEAN_ELEMENT_THEORY":"SGP4","EPOCH":"2023-05-25T17:46:29.146368","MEAN_MOTION":"15.16382212","ECCENTRICITY":"0.00120570","INCLINATION":"97.4777","RA_OF_ASC_NODE":"205.5990","ARG_OF_PERICENTER":"95.5555","MEAN_ANOMALY":"264.7053","EPHEMERIS_TYPE":"0","CLASSIFICATION_TYPE":"U","NORAD_CAT_ID":"55018","ELEMENT_SET_NO":"999","REV_AT_EPOCH":"2166","BSTAR":"0.00054357000000","MEAN_MOTION_DOT":"0.00010513","MEAN_MOTION_DDOT":"0.0000000000000","SEMIMAJOR_AXIS":"6894.922","PERIOD":"94.963","APOAPSIS":"525.101","PERIAPSIS":"508.474","OBJECT_TYPE":"PAYLOAD","RCS_SIZE":"MEDIUM","COUNTRY_CODE":"LUXE","LAUNCH_DATE":"2023-01-03","SITE":"AFETR","DECAY_DATE":null,"FILE":"3916816","GP_ID":"232485869","TLE_LINE0":"0 KSF3-C","TLE_LINE1":"1 55018U 23001K   23145.74061512  .00010513  00000-0  54357-3 0  9993","TLE_LINE2":"2 55018  97.4777 205.5990 0012057  95.5555 264.7053 15.16382212 21664"},{"CCSDS_OMM_VERS":"2.0","COMMENT":"GENERATED VIA SPACE-TRACK.ORG API","CREATION_DATE":"2023-05-26T03:40:15","ORIGINATOR":"18 SPCS","OBJECT_NAME":"KSF3-C","OBJECT_ID":"2023-001K","CENTER_NAME":"EARTH","REF_FRAME":"TEME","TIME_SYSTEM":"UTC","MEAN_ELEMENT_THEORY":"SGP4","EPOCH":"2023-05-25T20:56:31.937568","MEAN_MOTION":"15.16383703","ECCENTRICITY":"0.00120420","INCLINATION":"97.4777","RA_OF_ASC_NODE":"205.7292","ARG_OF_PERICENTER":"95.1603","MEAN_ANOMALY":"265.1004","EPHEMERIS_TYPE":"0","CLASSIFICATION_TYPE":"U","NORAD_CAT_ID":"55018","ELEMENT_SET_NO":"999","REV_AT_EPOCH":"2168","BSTAR":"0.00050105000000","MEAN_MOTION_DOT":"0.00009685","MEAN_MOTION_DDOT":"0.0000000000000","SEMIMAJOR_AXIS":"6894.918","PERIOD":"94.963","APOAPSIS":"525.086","PERIAPSIS":"508.480","OBJECT_TYPE":"PAYLOAD","RCS_SIZE":"MEDIUM","COUNTRY_CODE":"LUXE","LAUNCH_DATE":"2023-01-03","SITE":"AFETR","DECAY_DATE":null,"FILE":"3917122","GP_ID":"232519368","TLE_LINE0":"0 KSF3-C","TLE_LINE1":"1 55018U 23001K   23145.87259187  .00009685  00000-0  50105-3 0  9999","TLE_LINE2":"2 55018  97.4777 205.7292 0012042  95.1603 265.1004 15.16383703 21684"}]